POINT (530833.381340393 5008024.86694469)
POINT (530833.501953045 5008024.86694469)
POINT (530833.501953045 5008025.20524474)
POINT (530833.381340393 5008025.20524474)
POINT (530833.381340393 5008024.86694469)
POINT (530856.806337569 5008025.09076693)
POINT (530856.926950221 5008025.09076693)
POINT (530856.926950221 5008025.42906697)
POINT (530856.806337569 5008025.42906697)
POINT (530856.806337569 5008025.09076693)
POINT (530859.852453605 5008025.11987209)
POINT (530859.973066258 5008025.11987209)
POINT (530859.973066258 5008025.45817214)
POINT (530859.852453605 5008025.45817214)
POINT (530859.852453605 5008025.11987209)
POINT (530850.714118589 5008025.03255671)
POINT (530850.834731242 5008025.03255671)
POINT (530850.834731242 5008025.37085676)
POINT (530850.714118589 5008025.37085676)
POINT (530850.714118589 5008025.03255671)
POINT (530860.907853643 5008025.12995628)
POINT (530861.028466296 5008025.12995628)
POINT (530861.028466296 5008025.46825632)
POINT (530860.907853643 5008025.46825632)
POINT (530860.907853643 5008025.12995628)
POINT (530853.760234625 5008025.06166188)
POINT (530853.880847278 5008025.06166188)
POINT (530853.880847278 5008025.39996193)
POINT (530853.760234625 5008025.39996193)
POINT (530853.760234625 5008025.06166188)
POINT (530863.953969679 5008025.15906145)
POINT (530864.074582332 5008025.15906145)
POINT (530864.074582332 5008025.49736149)
POINT (530863.953969679 5008025.49736149)
POINT (530863.953969679 5008025.15906145)
POINT (530830.335224356 5008024.83783952)
POINT (530830.455837009 5008024.83783952)
POINT (530830.455837009 5008025.17613957)
POINT (530830.335224356 5008025.17613957)
POINT (530830.335224356 5008024.83783952)
POINT (530836.427443336 5008024.89604974)
POINT (530836.548055989 5008024.89604974)
POINT (530836.548055989 5008025.23434978)
POINT (530836.427443336 5008025.23434978)
POINT (530836.427443336 5008024.89604974)
POINT (530839.473559372 5008024.9251549)
POINT (530839.594172025 5008024.9251549)
POINT (530839.594172025 5008025.26345495)
POINT (530839.473559372 5008025.26345495)
POINT (530839.473559372 5008024.9251549)
POINT (530840.52895941 5008024.93523909)
POINT (530840.649572063 5008024.93523909)
POINT (530840.649572063 5008025.27353913)
POINT (530840.52895941 5008025.27353913)
POINT (530840.52895941 5008024.93523909)
POINT (530843.575075447 5008024.96434426)
POINT (530843.695688099 5008024.96434426)
POINT (530843.695688099 5008025.3026443)
POINT (530843.575075447 5008025.3026443)
POINT (530843.575075447 5008024.96434426)
POINT (530849.667294426 5008025.02255447)
POINT (530849.787907079 5008025.02255447)
POINT (530849.787907079 5008025.36085451)
POINT (530849.667294426 5008025.36085451)
POINT (530849.667294426 5008025.02255447)
POINT (530867.000072623 5008025.18816649)
POINT (530867.120685275 5008025.18816649)
POINT (530867.120685275 5008025.52646653)
POINT (530867.000072623 5008025.52646653)
POINT (530867.000072623 5008025.18816649)
POINT (530846.62117839 5008024.9934493)
POINT (530846.741791043 5008024.9934493)
POINT (530846.741791043 5008025.33174935)
POINT (530846.62117839 5008025.33174935)
POINT (530846.62117839 5008024.9934493)
POINT (530870.046188659 5008025.21727166)
POINT (530870.166801312 5008025.21727166)
POINT (530870.166801312 5008025.5555717)
POINT (530870.046188659 5008025.5555717)
POINT (530870.046188659 5008025.21727166)
POINT (530850.446873147 5008033.51229993)
POINT (530850.567485799 5008033.51229993)
POINT (530850.567485799 5008033.85059997)
POINT (530850.446873147 5008033.85059997)
POINT (530850.446873147 5008033.51229993)
POINT (530853.492989183 5008033.5414051)
POINT (530853.613601836 5008033.5414051)
POINT (530853.613601836 5008033.87970514)
POINT (530853.492989183 5008033.87970514)
POINT (530853.492989183 5008033.5414051)
POINT (530844.354654167 5008033.45408971)
POINT (530844.47526682 5008033.45408971)
POINT (530844.47526682 5008033.79238976)
POINT (530844.354654167 5008033.79238976)
POINT (530844.354654167 5008033.45408971)
POINT (530854.548389221 5008033.55148928)
POINT (530854.669001874 5008033.55148928)
POINT (530854.669001874 5008033.88978932)
POINT (530854.548389221 5008033.88978932)
POINT (530854.548389221 5008033.55148928)
POINT (530847.400770203 5008033.48319488)
POINT (530847.521382856 5008033.48319488)
POINT (530847.521382856 5008033.82149493)
POINT (530847.400770203 5008033.82149493)
POINT (530847.400770203 5008033.48319488)
POINT (530857.594505257 5008033.58059445)
POINT (530857.71511791 5008033.58059445)
POINT (530857.71511791 5008033.91889449)
POINT (530857.594505257 5008033.91889449)
POINT (530857.594505257 5008033.58059445)
POINT (530834.169494988 5008033.35677209)
POINT (530834.290107641 5008033.35677209)
POINT (530834.290107641 5008033.69507213)
POINT (530834.169494988 5008033.69507213)
POINT (530834.169494988 5008033.35677209)
POINT (530837.215611025 5008033.38587726)
POINT (530837.336223677 5008033.38587726)
POINT (530837.336223677 5008033.7241773)
POINT (530837.215611025 5008033.7241773)
POINT (530837.215611025 5008033.38587726)
POINT (530843.307830004 5008033.44408747)
POINT (530843.428442657 5008033.44408747)
POINT (530843.428442657 5008033.78238752)
POINT (530843.307830004 5008033.78238752)
POINT (530843.307830004 5008033.44408747)
POINT (530860.640608201 5008033.60969949)
POINT (530860.761220853 5008033.60969949)
POINT (530860.761220853 5008033.94799954)
POINT (530860.640608201 5008033.94799954)
POINT (530860.640608201 5008033.60969949)
POINT (530840.261713968 5008033.4149823)
POINT (530840.382326621 5008033.4149823)
POINT (530840.382326621 5008033.75328235)
POINT (530840.261713968 5008033.75328235)
POINT (530840.261713968 5008033.4149823)
POINT (530863.686724237 5008033.63880466)
POINT (530863.80733689 5008033.63880466)
POINT (530863.80733689 5008033.9771047)
POINT (530863.686724237 5008033.9771047)
POINT (530863.686724237 5008033.63880466)
POINT (530844.08739117 5008041.93384136)
POINT (530844.208003823 5008041.93384136)
POINT (530844.208003823 5008042.2721414)
POINT (530844.08739117 5008042.2721414)
POINT (530844.08739117 5008041.93384136)
POINT (530847.133507207 5008041.96294653)
POINT (530847.254119859 5008041.96294653)
POINT (530847.254119859 5008042.30124657)
POINT (530847.133507207 5008042.30124657)
POINT (530847.133507207 5008041.96294653)
POINT (530837.995172191 5008041.87563114)
POINT (530838.115784843 5008041.87563114)
POINT (530838.115784843 5008042.21393119)
POINT (530837.995172191 5008042.21393119)
POINT (530837.995172191 5008041.87563114)
POINT (530848.188907245 5008041.97303071)
POINT (530848.309519897 5008041.97303071)
POINT (530848.309519897 5008042.31133075)
POINT (530848.188907245 5008042.31133075)
POINT (530848.188907245 5008041.97303071)
POINT (530841.041288227 5008041.90473631)
POINT (530841.16190088 5008041.90473631)
POINT (530841.16190088 5008042.24303636)
POINT (530841.041288227 5008042.24303636)
POINT (530841.041288227 5008041.90473631)
POINT (530851.235023281 5008042.00213588)
POINT (530851.355635934 5008042.00213588)
POINT (530851.355635934 5008042.34043592)
POINT (530851.235023281 5008042.34043592)
POINT (530851.235023281 5008042.00213588)
POINT (530827.810013012 5008041.77831352)
POINT (530827.930625665 5008041.77831352)
POINT (530827.930625665 5008042.11661356)
POINT (530827.810013012 5008042.11661356)
POINT (530827.810013012 5008041.77831352)
POINT (530830.856129048 5008041.80741869)
POINT (530830.976741701 5008041.80741869)
POINT (530830.976741701 5008042.14571873)
POINT (530830.856129048 5008042.14571873)
POINT (530830.856129048 5008041.80741869)
POINT (530836.948348028 5008041.8656289)
POINT (530837.068960681 5008041.8656289)
POINT (530837.068960681 5008042.20392895)
POINT (530836.948348028 5008042.20392895)
POINT (530836.948348028 5008041.8656289)
POINT (530854.281126224 5008042.03124092)
POINT (530854.401738877 5008042.03124092)
POINT (530854.401738877 5008042.36954097)
POINT (530854.281126224 5008042.36954097)
POINT (530854.281126224 5008042.03124092)
POINT (530833.902231992 5008041.83652373)
POINT (530834.022844644 5008041.83652373)
POINT (530834.022844644 5008042.17482378)
POINT (530833.902231992 5008042.17482378)
POINT (530833.902231992 5008041.83652373)
POINT (530857.327242261 5008042.06034609)
POINT (530857.447854914 5008042.06034609)
POINT (530857.447854914 5008042.39864613)
POINT (530857.327242261 5008042.39864613)
POINT (530857.327242261 5008042.06034609)
POINT (530837.71933778 5008050.35529229)
POINT (530837.839950433 5008050.35529229)
POINT (530837.839950433 5008050.69359234)
POINT (530837.71933778 5008050.69359234)
POINT (530837.71933778 5008050.35529229)
POINT (530840.765453816 5008050.38439746)
POINT (530840.886066469 5008050.38439746)
POINT (530840.886066469 5008050.72269751)
POINT (530840.765453816 5008050.72269751)
POINT (530840.765453816 5008050.38439746)
POINT (530831.6271188 5008050.29708208)
POINT (530831.747731453 5008050.29708208)
POINT (530831.747731453 5008050.63538212)
POINT (530831.6271188 5008050.63538212)
POINT (530831.6271188 5008050.29708208)
POINT (530841.820853854 5008050.39448165)
POINT (530841.941466507 5008050.39448165)
POINT (530841.941466507 5008050.73278169)
POINT (530841.820853854 5008050.73278169)
POINT (530841.820853854 5008050.39448165)
POINT (530834.673234837 5008050.32618725)
POINT (530834.793847489 5008050.32618725)
POINT (530834.793847489 5008050.66448729)
POINT (530834.673234837 5008050.66448729)
POINT (530834.673234837 5008050.32618725)
POINT (530844.866969891 5008050.42358681)
POINT (530844.987582544 5008050.42358681)
POINT (530844.987582544 5008050.76188686)
POINT (530844.866969891 5008050.76188686)
POINT (530844.866969891 5008050.42358681)
POINT (530821.441959622 5008050.19976446)
POINT (530821.562572274 5008050.19976446)
POINT (530821.562572274 5008050.5380645)
POINT (530821.441959622 5008050.5380645)
POINT (530821.441959622 5008050.19976446)
POINT (530824.488075658 5008050.22886963)
POINT (530824.608688311 5008050.22886963)
POINT (530824.608688311 5008050.56716967)
POINT (530824.488075658 5008050.56716967)
POINT (530824.488075658 5008050.22886963)
POINT (530830.580294638 5008050.28707984)
POINT (530830.700907291 5008050.28707984)
POINT (530830.700907291 5008050.62537988)
POINT (530830.580294638 5008050.62537988)
POINT (530830.580294638 5008050.28707984)
POINT (530847.913072834 5008050.45269186)
POINT (530848.033685487 5008050.45269186)
POINT (530848.033685487 5008050.7909919)
POINT (530847.913072834 5008050.7909919)
POINT (530847.913072834 5008050.45269186)
POINT (530827.534178601 5008050.25797467)
POINT (530827.654791254 5008050.25797467)
POINT (530827.654791254 5008050.59627471)
POINT (530827.534178601 5008050.59627471)
POINT (530827.534178601 5008050.25797467)
POINT (530850.959188871 5008050.48179703)
POINT (530851.079801523 5008050.48179703)
POINT (530851.079801523 5008050.82009707)
POINT (530850.959188871 5008050.82009707)
POINT (530850.959188871 5008050.48179703)
POINT (530828.064921738 5008058.74533395)
POINT (530828.185534391 5008058.74533395)
POINT (530828.185534391 5008059.08363399)
POINT (530828.064921738 5008059.08363399)
POINT (530828.064921738 5008058.74533395)
POINT (530831.111024681 5008058.77443899)
POINT (530831.231637334 5008058.77443899)
POINT (530831.231637334 5008059.11273903)
POINT (530831.111024681 5008059.11273903)
POINT (530831.111024681 5008058.77443899)
POINT (530835.21254929 5008058.81364561)
POINT (530835.333161943 5008058.81364561)
POINT (530835.333161943 5008059.15194566)
POINT (530835.21254929 5008059.15194566)
POINT (530835.21254929 5008058.81364561)
POINT (530841.30476827 5008058.87185583)
POINT (530841.425380923 5008058.87185583)
POINT (530841.425380923 5008059.21015587)
POINT (530841.30476827 5008059.21015587)
POINT (530841.30476827 5008058.87185583)
POINT (530838.258665327 5008058.84275078)
POINT (530838.379277979 5008058.84275078)
POINT (530838.379277979 5008059.18105082)
POINT (530838.258665327 5008059.18105082)
POINT (530838.258665327 5008058.84275078)
POINT (530844.350884306 5008058.90096099)
POINT (530844.471496959 5008058.90096099)
POINT (530844.471496959 5008059.23926104)
POINT (530844.350884306 5008059.23926104)
POINT (530844.350884306 5008058.90096099)
POINT (530825.018805701 5008058.71622878)
POINT (530825.139418354 5008058.71622878)
POINT (530825.139418354 5008059.05452882)
POINT (530825.018805701 5008059.05452882)
POINT (530825.018805701 5008058.71622878)
POINT (530834.157140717 5008058.80354416)
POINT (530834.27775337 5008058.80354416)
POINT (530834.27775337 5008059.1418442)
POINT (530834.157140717 5008059.1418442)
POINT (530834.157140717 5008058.80354416)
POINT (530847.009835846 5008008.03256086)
POINT (530847.130448499 5008008.03256086)
POINT (530847.130448499 5008008.3708609)
POINT (530847.009835846 5008008.3708609)
POINT (530847.009835846 5008008.03256086)
POINT (530850.055938789 5008008.0616659)
POINT (530850.176551442 5008008.0616659)
POINT (530850.176551442 5008008.39996595)
POINT (530850.055938789 5008008.39996595)
POINT (530850.055938789 5008008.0616659)
POINT (530854.157463399 5008008.10087253)
POINT (530854.278076051 5008008.10087253)
POINT (530854.278076051 5008008.43917257)
POINT (530854.157463399 5008008.43917257)
POINT (530854.157463399 5008008.10087253)
POINT (530860.249682378 5008008.15908274)
POINT (530860.370295031 5008008.15908274)
POINT (530860.370295031 5008008.49738278)
POINT (530860.249682378 5008008.49738278)
POINT (530860.249682378 5008008.15908274)
POINT (530857.203579435 5008008.1299777)
POINT (530857.324192088 5008008.1299777)
POINT (530857.324192088 5008008.46827774)
POINT (530857.203579435 5008008.46827774)
POINT (530857.203579435 5008008.1299777)
POINT (530863.295798415 5008008.18818791)
POINT (530863.416411067 5008008.18818791)
POINT (530863.416411067 5008008.52648795)
POINT (530863.295798415 5008008.52648795)
POINT (530863.295798415 5008008.18818791)
POINT (530843.96371981 5008008.00345569)
POINT (530844.084332462 5008008.00345569)
POINT (530844.084332462 5008008.34175574)
POINT (530843.96371981 5008008.34175574)
POINT (530843.96371981 5008008.00345569)
POINT (530853.102054826 5008008.09077107)
POINT (530853.222667478 5008008.09077107)
POINT (530853.222667478 5008008.42907112)
POINT (530853.102054826 5008008.42907112)
POINT (530853.102054826 5008008.09077107)
POINT (530818.490465293 5007990.79547357)
POINT (530818.611077946 5007990.79547357)
POINT (530818.611077946 5007991.13377361)
POINT (530818.490465293 5007991.13377361)
POINT (530818.490465293 5007990.79547357)
POINT (530831.721740508 5007990.92189636)
POINT (530831.842353161 5007990.92189636)
POINT (530831.842353161 5007991.2601964)
POINT (530831.721740508 5007991.2601964)
POINT (530831.721740508 5007990.92189636)
POINT (530832.777140546 5007990.93198054)
POINT (530832.897753199 5007990.93198054)
POINT (530832.897753199 5007991.27028059)
POINT (530832.777140546 5007991.27028059)
POINT (530832.777140546 5007990.93198054)
POINT (530821.53658133 5007990.82457874)
POINT (530821.657193982 5007990.82457874)
POINT (530821.657193982 5007991.16287878)
POINT (530821.53658133 5007991.16287878)
POINT (530821.53658133 5007990.82457874)
POINT (530825.629521528 5007990.86368615)
POINT (530825.750134181 5007990.86368615)
POINT (530825.750134181 5007991.20198619)
POINT (530825.629521528 5007991.20198619)
POINT (530825.629521528 5007990.86368615)
POINT (530822.583405492 5007990.83458098)
POINT (530822.704018145 5007990.83458098)
POINT (530822.704018145 5007991.17288102)
POINT (530822.583405492 5007991.17288102)
POINT (530822.583405492 5007990.83458098)
POINT (530828.675624472 5007990.89279119)
POINT (530828.796237125 5007990.89279119)
POINT (530828.796237125 5007991.23109123)
POINT (530828.675624472 5007991.23109123)
POINT (530828.675624472 5007990.89279119)
POINT (530812.398246314 5007990.73726335)
POINT (530812.518858966 5007990.73726335)
POINT (530812.518858966 5007991.0755634)
POINT (530812.398246314 5007991.0755634)
POINT (530812.398246314 5007990.73726335)
POINT (530815.44436235 5007990.76636852)
POINT (530815.564975003 5007990.76636852)
POINT (530815.564975003 5007991.10466857)
POINT (530815.44436235 5007991.10466857)
POINT (530815.44436235 5007990.76636852)
POINT (530802.204511259 5007990.63986379)
POINT (530802.325123912 5007990.63986379)
POINT (530802.325123912 5007990.97816383)
POINT (530802.204511259 5007990.97816383)
POINT (530802.204511259 5007990.63986379)
POINT (530805.250627296 5007990.66896896)
POINT (530805.371239949 5007990.66896896)
POINT (530805.371239949 5007991.007269)
POINT (530805.250627296 5007991.007269)
POINT (530805.250627296 5007990.66896896)
POINT (530835.823256583 5007990.96108571)
POINT (530835.943869235 5007990.96108571)
POINT (530835.943869235 5007991.29938576)
POINT (530835.823256583 5007991.29938576)
POINT (530835.823256583 5007990.96108571)
POINT (530838.869359526 5007990.99019076)
POINT (530838.989972179 5007990.99019076)
POINT (530838.989972179 5007991.3284908)
POINT (530838.869359526 5007991.3284908)
POINT (530838.869359526 5007990.99019076)
POINT (530841.915475562 5007991.01929593)
POINT (530842.036088215 5007991.01929593)
POINT (530842.036088215 5007991.35759597)
POINT (530841.915475562 5007991.35759597)
POINT (530841.915475562 5007991.01929593)
POINT (530808.296730239 5007990.698074)
POINT (530808.417342892 5007990.698074)
POINT (530808.417342892 5007991.03637405)
POINT (530808.296730239 5007991.03637405)
POINT (530808.296730239 5007990.698074)
POINT (530811.342846276 5007990.72717917)
POINT (530811.463458928 5007990.72717917)
POINT (530811.463458928 5007991.06547921)
POINT (530811.342846276 5007991.06547921)
POINT (530811.342846276 5007990.72717917)
POINT (530852.854477107 5007999.6061131)
POINT (530852.975089759 5007999.6061131)
POINT (530852.975089759 5007999.94441314)
POINT (530852.854477107 5007999.94441314)
POINT (530852.854477107 5007999.6061131)
POINT (530855.90058005 5007999.63521814)
POINT (530856.021192703 5007999.63521814)
POINT (530856.021192703 5007999.97351819)
POINT (530855.90058005 5007999.97351819)
POINT (530855.90058005 5007999.63521814)
POINT (530858.946696086 5007999.66432331)
POINT (530859.067308739 5007999.66432331)
POINT (530859.067308739 5008000.00262336)
POINT (530858.946696086 5008000.00262336)
POINT (530858.946696086 5007999.66432331)
POINT (530849.80836107 5007999.57700793)
POINT (530849.928973723 5007999.57700793)
POINT (530849.928973723 5007999.91530797)
POINT (530849.80836107 5007999.91530797)
POINT (530849.80836107 5007999.57700793)
POINT (530864.351189627 5008008.1982806)
POINT (530864.47180228 5008008.1982806)
POINT (530864.47180228 5008008.53658065)
POINT (530864.351189627 5008008.53658065)
POINT (530864.351189627 5008008.1982806)
POINT (530870.443408607 5008008.25649081)
POINT (530870.56402126 5008008.25649081)
POINT (530870.56402126 5008008.59479086)
POINT (530870.443408607 5008008.59479086)
POINT (530870.443408607 5008008.25649081)
POINT (530867.397305664 5008008.22738577)
POINT (530867.517918316 5008008.22738577)
POINT (530867.517918316 5008008.56568581)
POINT (530867.397305664 5008008.56568581)
POINT (530867.397305664 5008008.22738577)
POINT (530873.489524643 5008008.28559598)
POINT (530873.610137296 5008008.28559598)
POINT (530873.610137296 5008008.62389603)
POINT (530873.489524643 5008008.62389603)
POINT (530873.489524643 5008008.28559598)
POINT (530838.094374226 5008067.32346052)
POINT (530838.214986879 5008067.32346052)
POINT (530838.214986879 5008067.66176057)
POINT (530838.094374226 5008067.66176057)
POINT (530838.094374226 5008067.32346052)
POINT (530828.95603921 5008067.23614514)
POINT (530829.076651863 5008067.23614514)
POINT (530829.076651863 5008067.57444518)
POINT (530828.95603921 5008067.57444518)
POINT (530828.95603921 5008067.23614514)
POINT (530832.002155247 5008067.26525031)
POINT (530832.122767899 5008067.26525031)
POINT (530832.122767899 5008067.60355035)
POINT (530832.002155247 5008067.60355035)
POINT (530832.002155247 5008067.26525031)
POINT (530835.04825819 5008067.29435535)
POINT (530835.168870843 5008067.29435535)
POINT (530835.168870843 5008067.6326554)
POINT (530835.04825819 5008067.6326554)
POINT (530835.04825819 5008067.29435535)
POINT (530793.003598496 5008007.51654819)
POINT (530793.124211149 5008007.51654819)
POINT (530793.124211149 5008007.85484824)
POINT (530793.003598496 5008007.85484824)
POINT (530793.003598496 5008007.51654819)
POINT (530785.760325738 5008015.92963654)
POINT (530785.880938391 5008015.92963654)
POINT (530785.880938391 5008016.26793659)
POINT (530785.760325738 5008016.26793659)
POINT (530785.760325738 5008015.92963654)
POINT (530788.806441774 5008015.95874171)
POINT (530788.927054427 5008015.95874171)
POINT (530788.927054427 5008016.29704175)
POINT (530788.806441774 5008016.29704175)
POINT (530788.806441774 5008015.95874171)
POINT (530791.852544718 5008015.98784675)
POINT (530791.97315737 5008015.98784675)
POINT (530791.97315737 5008016.3261468)
POINT (530791.852544718 5008016.3261468)
POINT (530791.852544718 5008015.98784675)
POINT (530779.378841365 5008024.35095915)
POINT (530779.499454018 5008024.35095915)
POINT (530779.499454018 5008024.68925919)
POINT (530779.378841365 5008024.68925919)
POINT (530779.378841365 5008024.35095915)
POINT (530782.424957401 5008024.38006432)
POINT (530782.545570054 5008024.38006432)
POINT (530782.545570054 5008024.71836436)
POINT (530782.424957401 5008024.71836436)
POINT (530782.424957401 5008024.38006432)
POINT (530785.471060345 5008024.40916936)
POINT (530785.591672997 5008024.40916936)
POINT (530785.591672997 5008024.7474694)
POINT (530785.471060345 5008024.7474694)
POINT (530785.471060345 5008024.40916936)
POINT (530788.517176381 5008024.43827453)
POINT (530788.637789034 5008024.43827453)
POINT (530788.637789034 5008024.77657457)
POINT (530788.517176381 5008024.77657457)
POINT (530788.517176381 5008024.43827453)
POINT (530789.572576419 5008024.44835871)
POINT (530789.693189072 5008024.44835871)
POINT (530789.693189072 5008024.78665876)
POINT (530789.572576419 5008024.78665876)
POINT (530789.572576419 5008024.44835871)
POINT (530792.618692455 5008024.47746388)
POINT (530792.739305108 5008024.47746388)
POINT (530792.739305108 5008024.81576393)
POINT (530792.618692455 5008024.81576393)
POINT (530792.618692455 5008024.47746388)
POINT (530783.209365043 5008032.86985591)
POINT (530783.329977696 5008032.86985591)
POINT (530783.329977696 5008033.20815596)
POINT (530783.209365043 5008033.20815596)
POINT (530783.209365043 5008032.86985591)
POINT (530786.255481079 5008032.89896108)
POINT (530786.376093732 5008032.89896108)
POINT (530786.376093732 5008033.23726113)
POINT (530786.255481079 5008033.23726113)
POINT (530786.255481079 5008032.89896108)
POINT (530789.301584023 5008032.92806613)
POINT (530789.422196675 5008032.92806613)
POINT (530789.422196675 5008033.26636617)
POINT (530789.301584023 5008033.26636617)
POINT (530789.301584023 5008032.92806613)
POINT (530792.347700059 5008032.95717129)
POINT (530792.468312712 5008032.95717129)
POINT (530792.468312712 5008033.29547134)
POINT (530792.347700059 5008033.29547134)
POINT (530792.347700059 5008032.95717129)
POINT (530793.403100097 5008032.96725548)
POINT (530793.52371275 5008032.96725548)
POINT (530793.52371275 5008033.30555552)
POINT (530793.403100097 5008033.30555552)
POINT (530793.403100097 5008032.96725548)
POINT (530776.849891795 5008041.29139743)
POINT (530776.970504448 5008041.29139743)
POINT (530776.970504448 5008041.62969747)
POINT (530776.849891795 5008041.62969747)
POINT (530776.849891795 5008041.29139743)
POINT (530779.896007832 5008041.3205026)
POINT (530780.016620485 5008041.3205026)
POINT (530780.016620485 5008041.65880264)
POINT (530779.896007832 5008041.65880264)
POINT (530779.896007832 5008041.3205026)
POINT (530782.942110775 5008041.34960764)
POINT (530783.062723428 5008041.34960764)
POINT (530783.062723428 5008041.68790768)
POINT (530782.942110775 5008041.68790768)
POINT (530782.942110775 5008041.34960764)
POINT (530785.988226812 5008041.37871281)
POINT (530786.108839464 5008041.37871281)
POINT (530786.108839464 5008041.71701285)
POINT (530785.988226812 5008041.71701285)
POINT (530785.988226812 5008041.37871281)
POINT (530787.04362685 5008041.38879699)
POINT (530787.164239502 5008041.38879699)
POINT (530787.164239502 5008041.72709704)
POINT (530787.04362685 5008041.72709704)
POINT (530787.04362685 5008041.38879699)
POINT (530790.089742886 5008041.41790216)
POINT (530790.210355539 5008041.41790216)
POINT (530790.210355539 5008041.75620221)
POINT (530790.089742886 5008041.75620221)
POINT (530790.089742886 5008041.41790216)
POINT (530793.135845829 5008041.44700721)
POINT (530793.256458482 5008041.44700721)
POINT (530793.256458482 5008041.78530725)
POINT (530793.135845829 5008041.78530725)
POINT (530793.135845829 5008041.44700721)
POINT (530770.490425288 5008049.71292181)
POINT (530770.611037941 5008049.71292181)
POINT (530770.611037941 5008050.05122186)
POINT (530770.490425288 5008050.05122186)
POINT (530770.490425288 5008049.71292181)
POINT (530773.536541325 5008049.74202698)
POINT (530773.657153977 5008049.74202698)
POINT (530773.657153977 5008050.08032703)
POINT (530773.536541325 5008050.08032703)
POINT (530773.536541325 5008049.74202698)
POINT (530776.582644268 5008049.77113203)
POINT (530776.703256921 5008049.77113203)
POINT (530776.703256921 5008050.10943207)
POINT (530776.582644268 5008050.10943207)
POINT (530776.582644268 5008049.77113203)
POINT (530779.628760304 5008049.8002372)
POINT (530779.749372957 5008049.8002372)
POINT (530779.749372957 5008050.13853724)
POINT (530779.628760304 5008050.13853724)
POINT (530779.628760304 5008049.8002372)
POINT (530780.684160342 5008049.81032138)
POINT (530780.804772995 5008049.81032138)
POINT (530780.804772995 5008050.14862142)
POINT (530780.684160342 5008050.14862142)
POINT (530780.684160342 5008049.81032138)
POINT (530783.730276379 5008049.83942655)
POINT (530783.850889031 5008049.83942655)
POINT (530783.850889031 5008050.17772659)
POINT (530783.730276379 5008050.17772659)
POINT (530783.730276379 5008049.83942655)
POINT (530786.776379322 5008049.86853159)
POINT (530786.896991975 5008049.86853159)
POINT (530786.896991975 5008050.20683164)
POINT (530786.776379322 5008050.20683164)
POINT (530786.776379322 5008049.86853159)
POINT (530789.822495358 5008049.89763676)
POINT (530789.943108011 5008049.89763676)
POINT (530789.943108011 5008050.23593681)
POINT (530789.822495358 5008050.23593681)
POINT (530789.822495358 5008049.89763676)
POINT (530790.869319521 5008049.907639)
POINT (530790.989932174 5008049.907639)
POINT (530790.989932174 5008050.24593905)
POINT (530790.869319521 5008050.24593905)
POINT (530790.869319521 5008049.907639)
POINT (530793.915435557 5008049.93674417)
POINT (530794.03604821 5008049.93674417)
POINT (530794.03604821 5008050.27504422)
POINT (530793.915435557 5008050.27504422)
POINT (530793.915435557 5008049.93674417)
POINT (530774.067273356 5008058.22940334)
POINT (530774.187886009 5008058.22940334)
POINT (530774.187886009 5008058.56770339)
POINT (530774.067273356 5008058.56770339)
POINT (530774.067273356 5008058.22940334)
POINT (530777.113389392 5008058.25850851)
POINT (530777.234002045 5008058.25850851)
POINT (530777.234002045 5008058.59680856)
POINT (530777.113389392 5008058.59680856)
POINT (530777.113389392 5008058.25850851)
POINT (530780.159492336 5008058.28761356)
POINT (530780.280104989 5008058.28761356)
POINT (530780.280104989 5008058.6259136)
POINT (530780.159492336 5008058.6259136)
POINT (530780.159492336 5008058.28761356)
POINT (530783.205608372 5008058.31671873)
POINT (530783.326221025 5008058.31671873)
POINT (530783.326221025 5008058.65501877)
POINT (530783.205608372 5008058.65501877)
POINT (530783.205608372 5008058.31671873)
POINT (530784.26100841 5008058.32680291)
POINT (530784.381621063 5008058.32680291)
POINT (530784.381621063 5008058.66510295)
POINT (530784.26100841 5008058.66510295)
POINT (530784.26100841 5008058.32680291)
POINT (530787.307124447 5008058.35590808)
POINT (530787.427737099 5008058.35590808)
POINT (530787.427737099 5008058.69420812)
POINT (530787.307124447 5008058.69420812)
POINT (530787.307124447 5008058.35590808)
POINT (530790.35322739 5008058.38501312)
POINT (530790.473840043 5008058.38501312)
POINT (530790.473840043 5008058.72331317)
POINT (530790.35322739 5008058.72331317)
POINT (530790.35322739 5008058.38501312)
POINT (530793.399343426 5008058.41411829)
POINT (530793.519956079 5008058.41411829)
POINT (530793.519956079 5008058.75241833)
POINT (530793.399343426 5008058.75241833)
POINT (530793.399343426 5008058.41411829)
POINT (530777.995922164 5008066.74924628)
POINT (530778.116534817 5008066.74924628)
POINT (530778.116534817 5008067.08754632)
POINT (530777.995922164 5008067.08754632)
POINT (530777.995922164 5008066.74924628)
POINT (530781.042038201 5008066.77835144)
POINT (530781.162650853 5008066.77835144)
POINT (530781.162650853 5008067.11665149)
POINT (530781.042038201 5008067.11665149)
POINT (530781.042038201 5008066.77835144)
POINT (530784.088141144 5008066.80745649)
POINT (530784.208753797 5008066.80745649)
POINT (530784.208753797 5008067.14575653)
POINT (530784.088141144 5008067.14575653)
POINT (530784.088141144 5008066.80745649)
POINT (530787.13425718 5008066.83656166)
POINT (530787.254869833 5008066.83656166)
POINT (530787.254869833 5008067.1748617)
POINT (530787.13425718 5008067.1748617)
POINT (530787.13425718 5008066.83656166)
POINT (530788.189657218 5008066.84664584)
POINT (530788.310269871 5008066.84664584)
POINT (530788.310269871 5008067.18494589)
POINT (530788.189657218 5008067.18494589)
POINT (530788.189657218 5008066.84664584)
POINT (530791.235773255 5008066.87575101)
POINT (530791.356385907 5008066.87575101)
POINT (530791.356385907 5008067.21405105)
POINT (530791.235773255 5008067.21405105)
POINT (530791.235773255 5008066.87575101)
POINT (530781.752962104 5008075.26742373)
POINT (530781.873574757 5008075.26742373)
POINT (530781.873574757 5008075.60572377)
POINT (530781.752962104 5008075.60572377)
POINT (530781.752962104 5008075.26742373)
POINT (530784.79907814 5008075.2965289)
POINT (530784.919690793 5008075.2965289)
POINT (530784.919690793 5008075.63482894)
POINT (530784.79907814 5008075.63482894)
POINT (530784.79907814 5008075.2965289)
POINT (530787.845181084 5008075.32563394)
POINT (530787.965793736 5008075.32563394)
POINT (530787.965793736 5008075.66393398)
POINT (530787.845181084 5008075.66393398)
POINT (530787.845181084 5008075.32563394)
POINT (530790.89129712 5008075.35473911)
POINT (530791.011909773 5008075.35473911)
POINT (530791.011909773 5008075.69303915)
POINT (530790.89129712 5008075.69303915)
POINT (530790.89129712 5008075.35473911)
POINT (530791.946697158 5008075.36482329)
POINT (530792.067309811 5008075.36482329)
POINT (530792.067309811 5008075.70312334)
POINT (530791.946697158 5008075.70312334)
POINT (530791.946697158 5008075.36482329)
POINT (530785.647294317 5008083.78693877)
POINT (530785.76790697 5008083.78693877)
POINT (530785.76790697 5008084.12523881)
POINT (530785.647294317 5008084.12523881)
POINT (530785.647294317 5008083.78693877)
POINT (530788.693410354 5008083.81604394)
POINT (530788.814023006 5008083.81604394)
POINT (530788.814023006 5008084.15434398)
POINT (530788.693410354 5008084.15434398)
POINT (530788.693410354 5008083.81604394)
POINT (530791.739513297 5008083.84514898)
POINT (530791.86012595 5008083.84514898)
POINT (530791.86012595 5008084.18344903)
POINT (530791.739513297 5008084.18344903)
POINT (530791.739513297 5008083.84514898)
POINT (530791.73361536 5008092.35056238)
POINT (530791.854228012 5008092.35056238)
POINT (530791.854228012 5008092.68886243)
POINT (530791.73361536 5008092.68886243)
POINT (530791.73361536 5008092.35056238)
POINT (530791.750542346 5008100.84367761)
POINT (530791.871154998 5008100.84367761)
POINT (530791.871154998 5008101.18197766)
POINT (530791.750542346 5008101.18197766)
POINT (530791.750542346 5008100.84367761)
POINT (530836.720438226 5008016.41655255)
POINT (530836.841050879 5008016.41655255)
POINT (530836.841050879 5008016.7548526)
POINT (530836.720438226 5008016.7548526)
POINT (530836.720438226 5008016.41655255)
POINT (530798.848235441 5007999.09009609)
POINT (530798.968848094 5007999.09009609)
POINT (530798.968848094 5007999.42839614)
POINT (530798.848235441 5007999.42839614)
POINT (530798.848235441 5007999.09009609)
POINT (530801.894351477 5007999.11920126)
POINT (530802.01496413 5007999.11920126)
POINT (530802.01496413 5007999.45750131)
POINT (530801.894351477 5007999.45750131)
POINT (530801.894351477 5007999.11920126)
POINT (530796.049714532 5008007.54565336)
POINT (530796.170327185 5008007.54565336)
POINT (530796.170327185 5008007.8839534)
POINT (530796.049714532 5008007.8839534)
POINT (530796.049714532 5008007.54565336)
POINT (530799.095817476 5008007.5747584)
POINT (530799.216430129 5008007.5747584)
POINT (530799.216430129 5008007.91305845)
POINT (530799.095817476 5008007.91305845)
POINT (530799.095817476 5008007.5747584)
POINT (530802.141933512 5008007.60386357)
POINT (530802.262546165 5008007.60386357)
POINT (530802.262546165 5008007.94216362)
POINT (530802.141933512 5008007.94216362)
POINT (530802.141933512 5008007.60386357)
POINT (530803.19733355 5008007.61394776)
POINT (530803.317946203 5008007.61394776)
POINT (530803.317946203 5008007.9522478)
POINT (530803.19733355 5008007.9522478)
POINT (530803.19733355 5008007.61394776)
POINT (530794.898660754 5008016.01695192)
POINT (530795.019273407 5008016.01695192)
POINT (530795.019273407 5008016.35525197)
POINT (530794.898660754 5008016.35525197)
POINT (530794.898660754 5008016.01695192)
POINT (530795.954060792 5008016.02703611)
POINT (530796.074673445 5008016.02703611)
POINT (530796.074673445 5008016.36533615)
POINT (530795.954060792 5008016.36533615)
POINT (530795.954060792 5008016.02703611)
POINT (530799.000176828 5008016.05614128)
POINT (530799.120789481 5008016.05614128)
POINT (530799.120789481 5008016.39444132)
POINT (530799.000176828 5008016.39444132)
POINT (530799.000176828 5008016.05614128)
POINT (530802.046279772 5008016.08524632)
POINT (530802.166892424 5008016.08524632)
POINT (530802.166892424 5008016.42354636)
POINT (530802.046279772 5008016.42354636)
POINT (530802.046279772 5008016.08524632)
POINT (530795.664795399 5008024.50656893)
POINT (530795.785408052 5008024.50656893)
POINT (530795.785408052 5008024.84486897)
POINT (530795.664795399 5008024.84486897)
POINT (530795.664795399 5008024.50656893)
POINT (530798.710911435 5008024.5356741)
POINT (530798.831524088 5008024.5356741)
POINT (530798.831524088 5008024.87397414)
POINT (530798.710911435 5008024.87397414)
POINT (530798.710911435 5008024.5356741)
POINT (530799.757735598 5008024.54567634)
POINT (530799.87834825 5008024.54567634)
POINT (530799.87834825 5008024.88397638)
POINT (530799.757735598 5008024.88397638)
POINT (530799.757735598 5008024.54567634)
POINT (530802.803851634 5008024.57478151)
POINT (530802.924464287 5008024.57478151)
POINT (530802.924464287 5008024.91308155)
POINT (530802.803851634 5008024.91308155)
POINT (530802.803851634 5008024.57478151)
POINT (530796.449216133 5008032.99636065)
POINT (530796.569828786 5008032.99636065)
POINT (530796.569828786 5008033.33466069)
POINT (530796.449216133 5008033.33466069)
POINT (530796.449216133 5008032.99636065)
POINT (530799.495319077 5008033.02546569)
POINT (530799.61593173 5008033.02546569)
POINT (530799.61593173 5008033.36376574)
POINT (530799.495319077 5008033.36376574)
POINT (530799.495319077 5008033.02546569)
POINT (530802.541435113 5008033.05457086)
POINT (530802.662047766 5008033.05457086)
POINT (530802.662047766 5008033.3928709)
POINT (530802.541435113 5008033.3928709)
POINT (530802.541435113 5008033.05457086)
POINT (530803.588259276 5008033.0645731)
POINT (530803.708871928 5008033.0645731)
POINT (530803.708871928 5008033.40287315)
POINT (530803.588259276 5008033.40287315)
POINT (530803.588259276 5008033.0645731)
POINT (530796.181961866 5008041.47611237)
POINT (530796.302574518 5008041.47611237)
POINT (530796.302574518 5008041.81441242)
POINT (530796.181961866 5008041.81441242)
POINT (530796.181961866 5008041.47611237)
POINT (530797.228786028 5008041.48611462)
POINT (530797.349398681 5008041.48611462)
POINT (530797.349398681 5008041.82441466)
POINT (530797.228786028 5008041.82441466)
POINT (530797.228786028 5008041.48611462)
POINT (530800.274902064 5008041.51521979)
POINT (530800.395514717 5008041.51521979)
POINT (530800.395514717 5008041.85351983)
POINT (530800.274902064 5008041.85351983)
POINT (530800.274902064 5008041.51521979)
POINT (530803.321005008 5008041.54432483)
POINT (530803.441617661 5008041.54432483)
POINT (530803.441617661 5008041.88262487)
POINT (530803.321005008 5008041.88262487)
POINT (530803.321005008 5008041.54432483)
POINT (530796.961538501 5008049.96584922)
POINT (530797.082151153 5008049.96584922)
POINT (530797.082151153 5008050.30414926)
POINT (530796.961538501 5008050.30414926)
POINT (530796.961538501 5008049.96584922)
POINT (530800.007654537 5008049.99495439)
POINT (530800.12826719 5008049.99495439)
POINT (530800.12826719 5008050.33325443)
POINT (530800.007654537 5008050.33325443)
POINT (530800.007654537 5008049.99495439)
POINT (530801.063054575 5008050.00503857)
POINT (530801.183667228 5008050.00503857)
POINT (530801.183667228 5008050.34333861)
POINT (530801.063054575 5008050.34333861)
POINT (530801.063054575 5008050.00503857)
POINT (530804.109170611 5008050.03414374)
POINT (530804.229783264 5008050.03414374)
POINT (530804.229783264 5008050.37244378)
POINT (530804.109170611 5008050.37244378)
POINT (530804.109170611 5008050.03414374)
POINT (530794.446167589 5008058.42412053)
POINT (530794.566780242 5008058.42412053)
POINT (530794.566780242 5008058.76242058)
POINT (530794.446167589 5008058.76242058)
POINT (530794.446167589 5008058.42412053)
POINT (530797.492283625 5008058.4532257)
POINT (530797.612896278 5008058.4532257)
POINT (530797.612896278 5008058.79152575)
POINT (530797.492283625 5008058.79152575)
POINT (530797.492283625 5008058.4532257)
POINT (530800.538386569 5008058.48233075)
POINT (530800.658999221 5008058.48233075)
POINT (530800.658999221 5008058.82063079)
POINT (530800.538386569 5008058.82063079)
POINT (530800.538386569 5008058.48233075)
POINT (530803.584502605 5008058.51143591)
POINT (530803.705115258 5008058.51143591)
POINT (530803.705115258 5008058.84973596)
POINT (530803.584502605 5008058.84973596)
POINT (530803.584502605 5008058.51143591)
POINT (530794.281876198 5008066.90485605)
POINT (530794.402488851 5008066.90485605)
POINT (530794.402488851 5008067.2431561)
POINT (530794.281876198 5008067.2431561)
POINT (530794.281876198 5008066.90485605)
POINT (530797.327992234 5008066.93396122)
POINT (530797.448604887 5008066.93396122)
POINT (530797.448604887 5008067.27226127)
POINT (530797.327992234 5008067.27226127)
POINT (530797.327992234 5008066.93396122)
POINT (530798.374816397 5008066.94396347)
POINT (530798.49542905 5008066.94396347)
POINT (530798.49542905 5008067.28226351)
POINT (530798.374816397 5008067.28226351)
POINT (530798.374816397 5008066.94396347)
POINT (530801.420932433 5008066.97306863)
POINT (530801.541545086 5008066.97306863)
POINT (530801.541545086 5008067.31136868)
POINT (530801.420932433 5008067.31136868)
POINT (530801.420932433 5008066.97306863)
POINT (530794.992813194 5008075.39392846)
POINT (530795.113425847 5008075.39392846)
POINT (530795.113425847 5008075.73222851)
POINT (530794.992813194 5008075.73222851)
POINT (530794.992813194 5008075.39392846)
POINT (530798.038916138 5008075.42303351)
POINT (530798.159528791 5008075.42303351)
POINT (530798.159528791 5008075.76133355)
POINT (530798.038916138 5008075.76133355)
POINT (530798.038916138 5008075.42303351)
POINT (530801.085032174 5008075.45213867)
POINT (530801.205644827 5008075.45213867)
POINT (530801.205644827 5008075.79043872)
POINT (530801.085032174 5008075.79043872)
POINT (530801.085032174 5008075.45213867)
POINT (530802.131856337 5008075.46214092)
POINT (530802.252468989 5008075.46214092)
POINT (530802.252468989 5008075.80044096)
POINT (530802.131856337 5008075.80044096)
POINT (530802.131856337 5008075.46214092)
POINT (530794.785629333 5008083.87425415)
POINT (530794.906241986 5008083.87425415)
POINT (530794.906241986 5008084.21255419)
POINT (530794.785629333 5008084.21255419)
POINT (530794.785629333 5008083.87425415)
POINT (530795.841029371 5008083.88433833)
POINT (530795.961642024 5008083.88433833)
POINT (530795.961642024 5008084.22263838)
POINT (530795.841029371 5008084.22263838)
POINT (530795.841029371 5008083.88433833)
POINT (530798.887145408 5008083.9134435)
POINT (530799.00775806 5008083.9134435)
POINT (530799.00775806 5008084.25174355)
POINT (530798.887145408 5008084.25174355)
POINT (530798.887145408 5008083.9134435)
POINT (530801.933248351 5008083.94254855)
POINT (530802.053861004 5008083.94254855)
POINT (530802.053861004 5008084.28084859)
POINT (530801.933248351 5008084.28084859)
POINT (530801.933248351 5008083.94254855)
POINT (530794.779731396 5008092.37966755)
POINT (530794.900344049 5008092.37966755)
POINT (530794.900344049 5008092.71796759)
POINT (530794.779731396 5008092.71796759)
POINT (530794.779731396 5008092.37966755)
POINT (530797.825834339 5008092.4087726)
POINT (530797.946446992 5008092.4087726)
POINT (530797.946446992 5008092.74707264)
POINT (530797.825834339 5008092.74707264)
POINT (530797.825834339 5008092.4087726)
POINT (530800.871950376 5008092.43787776)
POINT (530800.992563028 5008092.43787776)
POINT (530800.992563028 5008092.77617781)
POINT (530800.871950376 5008092.77617781)
POINT (530800.871950376 5008092.43787776)
POINT (530801.927350414 5008092.44796195)
POINT (530802.047963066 5008092.44796195)
POINT (530802.047963066 5008092.78626199)
POINT (530801.927350414 5008092.78626199)
POINT (530801.927350414 5008092.44796195)
POINT (530794.796658382 5008100.87278278)
POINT (530794.917271035 5008100.87278278)
POINT (530794.917271035 5008101.21108283)
POINT (530794.796658382 5008101.21108283)
POINT (530794.796658382 5008100.87278278)
POINT (530797.842761325 5008100.90188783)
POINT (530797.963373978 5008100.90188783)
POINT (530797.963373978 5008101.24018787)
POINT (530797.842761325 5008101.24018787)
POINT (530797.842761325 5008100.90188783)
POINT (530800.888877362 5008100.930993)
POINT (530801.009490015 5008100.930993)
POINT (530801.009490015 5008101.26929304)
POINT (530800.888877362 5008101.26929304)
POINT (530800.888877362 5008100.930993)
POINT (530801.9442774 5008100.94107718)
POINT (530802.064890053 5008100.94107718)
POINT (530802.064890053 5008101.27937722)
POINT (530801.9442774 5008101.27937722)
POINT (530801.9442774 5008100.94107718)
POINT (530796.92698943 5008109.34160463)
POINT (530797.047602083 5008109.34160463)
POINT (530797.047602083 5008109.67990467)
POINT (530796.92698943 5008109.67990467)
POINT (530796.92698943 5008109.34160463)
POINT (530799.973105467 5008109.37070979)
POINT (530800.093718119 5008109.37070979)
POINT (530800.093718119 5008109.70900984)
POINT (530799.973105467 5008109.70900984)
POINT (530799.973105467 5008109.37070979)
POINT (530803.01920841 5008109.39981484)
POINT (530803.139821063 5008109.39981484)
POINT (530803.139821063 5008109.73811488)
POINT (530803.01920841 5008109.73811488)
POINT (530803.01920841 5008109.39981484)
POINT (530839.766554262 5008016.44565772)
POINT (530839.887166915 5008016.44565772)
POINT (530839.887166915 5008016.78395776)
POINT (530839.766554262 5008016.78395776)
POINT (530839.766554262 5008016.44565772)
POINT (530842.812657206 5008016.47476276)
POINT (530842.933269858 5008016.47476276)
POINT (530842.933269858 5008016.81306281)
POINT (530842.812657206 5008016.81306281)
POINT (530842.812657206 5008016.47476276)
POINT (530845.858773242 5008016.50386793)
POINT (530845.979385895 5008016.50386793)
POINT (530845.979385895 5008016.84216798)
POINT (530845.858773242 5008016.84216798)
POINT (530845.858773242 5008016.50386793)
POINT (530804.940454421 5007999.14830631)
POINT (530805.061067073 5007999.14830631)
POINT (530805.061067073 5007999.48660635)
POINT (530804.940454421 5007999.48660635)
POINT (530804.940454421 5007999.14830631)
POINT (530807.986570457 5007999.17741147)
POINT (530808.10718311 5007999.17741147)
POINT (530808.10718311 5007999.51571152)
POINT (530807.986570457 5007999.51571152)
POINT (530807.986570457 5007999.17741147)
POINT (530809.041970495 5007999.18749566)
POINT (530809.162583148 5007999.18749566)
POINT (530809.162583148 5007999.5257957)
POINT (530809.041970495 5007999.5257957)
POINT (530809.041970495 5007999.18749566)
POINT (530812.088086531 5007999.21660083)
POINT (530812.208699184 5007999.21660083)
POINT (530812.208699184 5007999.55490087)
POINT (530812.088086531 5007999.55490087)
POINT (530812.088086531 5007999.21660083)
POINT (530806.243449587 5008007.64305293)
POINT (530806.364062239 5008007.64305293)
POINT (530806.364062239 5008007.98135297)
POINT (530806.243449587 5008007.98135297)
POINT (530806.243449587 5008007.64305293)
POINT (530809.28955253 5008007.67215797)
POINT (530809.410165183 5008007.67215797)
POINT (530809.410165183 5008008.01045801)
POINT (530809.28955253 5008008.01045801)
POINT (530809.28955253 5008007.67215797)
POINT (530805.092395808 5008016.11435149)
POINT (530805.213008461 5008016.11435149)
POINT (530805.213008461 5008016.45265153)
POINT (530805.092395808 5008016.45265153)
POINT (530805.092395808 5008016.11435149)
POINT (530806.139219971 5008016.12435373)
POINT (530806.259832623 5008016.12435373)
POINT (530806.259832623 5008016.46265377)
POINT (530806.139219971 5008016.46265377)
POINT (530806.139219971 5008016.12435373)
POINT (530809.185336007 5008016.1534589)
POINT (530809.30594866 5008016.1534589)
POINT (530809.30594866 5008016.49175894)
POINT (530809.185336007 5008016.49175894)
POINT (530809.185336007 5008016.1534589)
POINT (530812.23143895 5008016.18256394)
POINT (530812.352051603 5008016.18256394)
POINT (530812.352051603 5008016.52086399)
POINT (530812.23143895 5008016.52086399)
POINT (530812.23143895 5008016.18256394)
POINT (530805.849954577 5008024.60388655)
POINT (530805.97056723 5008024.60388655)
POINT (530805.97056723 5008024.94218659)
POINT (530805.849954577 5008024.94218659)
POINT (530805.849954577 5008024.60388655)
POINT (530808.896070614 5008024.63299172)
POINT (530809.016683266 5008024.63299172)
POINT (530809.016683266 5008024.97129176)
POINT (530808.896070614 5008024.97129176)
POINT (530808.896070614 5008024.63299172)
POINT (530809.951470652 5008024.6430759)
POINT (530810.072083305 5008024.6430759)
POINT (530810.072083305 5008024.98137595)
POINT (530809.951470652 5008024.98137595)
POINT (530809.951470652 5008024.6430759)
POINT (530806.634375312 5008033.09367827)
POINT (530806.754987965 5008033.09367827)
POINT (530806.754987965 5008033.43197832)
POINT (530806.634375312 5008033.43197832)
POINT (530806.634375312 5008033.09367827)
POINT (530809.680478255 5008033.12278332)
POINT (530809.801090908 5008033.12278332)
POINT (530809.801090908 5008033.46108336)
POINT (530809.680478255 5008033.46108336)
POINT (530809.680478255 5008033.12278332)
POINT (530806.367121044 5008041.57343)
POINT (530806.487733697 5008041.57343)
POINT (530806.487733697 5008041.91173004)
POINT (530806.367121044 5008041.91173004)
POINT (530806.367121044 5008041.57343)
POINT (530807.422521082 5008041.58351418)
POINT (530807.543133735 5008041.58351418)
POINT (530807.543133735 5008041.92181423)
POINT (530807.422521082 5008041.92181423)
POINT (530807.422521082 5008041.58351418)
POINT (530810.468637119 5008041.61261935)
POINT (530810.589249771 5008041.61261935)
POINT (530810.589249771 5008041.95091939)
POINT (530810.468637119 5008041.95091939)
POINT (530810.468637119 5008041.61261935)
POINT (530807.155273555 5008050.06324878)
POINT (530807.275886207 5008050.06324878)
POINT (530807.275886207 5008050.40154883)
POINT (530807.155273555 5008050.40154883)
POINT (530807.155273555 5008050.06324878)
POINT (530810.201389591 5008050.09235395)
POINT (530810.322002244 5008050.09235395)
POINT (530810.322002244 5008050.43065399)
POINT (530810.201389591 5008050.43065399)
POINT (530810.201389591 5008050.09235395)
POINT (530811.256798164 5008050.1024554)
POINT (530811.377410817 5008050.1024554)
POINT (530811.377410817 5008050.44075545)
POINT (530811.256798164 5008050.44075545)
POINT (530811.256798164 5008050.1024554)
POINT (530804.639902643 5008058.5215201)
POINT (530804.760515296 5008058.5215201)
POINT (530804.760515296 5008058.85982014)
POINT (530804.639902643 5008058.85982014)
POINT (530804.639902643 5008058.5215201)
POINT (530807.686018679 5008058.55062527)
POINT (530807.806631332 5008058.55062527)
POINT (530807.806631332 5008058.88892531)
POINT (530807.686018679 5008058.88892531)
POINT (530807.686018679 5008058.55062527)
POINT (530810.732121623 5008058.57973031)
POINT (530810.852734275 5008058.57973031)
POINT (530810.852734275 5008058.91803036)
POINT (530810.732121623 5008058.91803036)
POINT (530810.732121623 5008058.57973031)
POINT (530804.467035377 5008067.00217368)
POINT (530804.587648029 5008067.00217368)
POINT (530804.587648029 5008067.34047372)
POINT (530804.467035377 5008067.34047372)
POINT (530804.467035377 5008067.00217368)
POINT (530807.513151413 5008067.03127885)
POINT (530807.633764066 5008067.03127885)
POINT (530807.633764066 5008067.36957889)
POINT (530807.513151413 5008067.36957889)
POINT (530807.513151413 5008067.03127885)
POINT (530808.568551451 5008067.04136303)
POINT (530808.689164104 5008067.04136303)
POINT (530808.689164104 5008067.37966307)
POINT (530808.568551451 5008067.37966307)
POINT (530808.568551451 5008067.04136303)
POINT (530811.614667487 5008067.0704682)
POINT (530811.73528014 5008067.0704682)
POINT (530811.73528014 5008067.40876824)
POINT (530811.614667487 5008067.40876824)
POINT (530811.614667487 5008067.0704682)
POINT (530805.177972373 5008075.49124609)
POINT (530805.298585026 5008075.49124609)
POINT (530805.298585026 5008075.82954613)
POINT (530805.177972373 5008075.82954613)
POINT (530805.177972373 5008075.49124609)
POINT (530808.224075316 5008075.52035113)
POINT (530808.344687969 5008075.52035113)
POINT (530808.344687969 5008075.85865117)
POINT (530808.224075316 5008075.85865117)
POINT (530808.224075316 5008075.52035113)
POINT (530811.270191353 5008075.5494563)
POINT (530811.390804005 5008075.5494563)
POINT (530811.390804005 5008075.88775634)
POINT (530811.270191353 5008075.88775634)
POINT (530811.270191353 5008075.5494563)
POINT (530804.979364387 5008083.97165372)
POINT (530805.09997704 5008083.97165372)
POINT (530805.09997704 5008084.30995376)
POINT (530804.979364387 5008084.30995376)
POINT (530804.979364387 5008083.97165372)
POINT (530806.02618855 5008083.98165596)
POINT (530806.146801203 5008083.98165596)
POINT (530806.146801203 5008084.319956)
POINT (530806.02618855 5008084.319956)
POINT (530806.02618855 5008083.98165596)
POINT (530809.072304586 5008084.01076113)
POINT (530809.192917239 5008084.01076113)
POINT (530809.192917239 5008084.34906117)
POINT (530809.072304586 5008084.34906117)
POINT (530809.072304586 5008084.01076113)
POINT (530812.11840753 5008084.03986617)
POINT (530812.239020182 5008084.03986617)
POINT (530812.239020182 5008084.37816621)
POINT (530812.11840753 5008084.37816621)
POINT (530812.11840753 5008084.03986617)
POINT (530804.97346645 5008092.47706712)
POINT (530805.094079103 5008092.47706712)
POINT (530805.094079103 5008092.81536716)
POINT (530804.97346645 5008092.81536716)
POINT (530804.97346645 5008092.47706712)
POINT (530808.019569393 5008092.50617216)
POINT (530808.140182046 5008092.50617216)
POINT (530808.140182046 5008092.8444722)
POINT (530808.019569393 5008092.8444722)
POINT (530808.019569393 5008092.50617216)
POINT (530811.06568543 5008092.53527733)
POINT (530811.186298083 5008092.53527733)
POINT (530811.186298083 5008092.87357737)
POINT (530811.06568543 5008092.87357737)
POINT (530811.06568543 5008092.53527733)
POINT (530804.990393436 5008100.97018235)
POINT (530805.111006089 5008100.97018235)
POINT (530805.111006089 5008101.30848239)
POINT (530804.990393436 5008101.30848239)
POINT (530804.990393436 5008100.97018235)
POINT (530808.03649638 5008100.99928739)
POINT (530808.157109032 5008100.99928739)
POINT (530808.157109032 5008101.33758744)
POINT (530808.03649638 5008101.33758744)
POINT (530808.03649638 5008100.99928739)
POINT (530811.082612416 5008101.02839256)
POINT (530811.203225069 5008101.02839256)
POINT (530811.203225069 5008101.36669261)
POINT (530811.082612416 5008101.36669261)
POINT (530811.082612416 5008101.02839256)
POINT (530806.065324446 5008109.42892001)
POINT (530806.185937099 5008109.42892001)
POINT (530806.185937099 5008109.76722005)
POINT (530806.065324446 5008109.76722005)
POINT (530806.065324446 5008109.42892001)
POINT (530846.91417328 5008016.51395212)
POINT (530847.034785933 5008016.51395212)
POINT (530847.034785933 5008016.85225216)
POINT (530846.91417328 5008016.85225216)
POINT (530846.91417328 5008016.51395212)
POINT (530849.960289316 5008016.54305729)
POINT (530850.080901969 5008016.54305729)
POINT (530850.080901969 5008016.88135733)
POINT (530849.960289316 5008016.88135733)
POINT (530849.960289316 5008016.54305729)
POINT (530853.00639226 5008016.57216233)
POINT (530853.127004912 5008016.57216233)
POINT (530853.127004912 5008016.91046237)
POINT (530853.00639226 5008016.91046237)
POINT (530853.00639226 5008016.57216233)
POINT (530815.134189475 5007999.24570587)
POINT (530815.254802127 5007999.24570587)
POINT (530815.254802127 5007999.58400591)
POINT (530815.134189475 5007999.58400591)
POINT (530815.134189475 5007999.24570587)
POINT (530818.180305511 5007999.27481104)
POINT (530818.300918164 5007999.27481104)
POINT (530818.300918164 5007999.61311108)
POINT (530818.180305511 5007999.61311108)
POINT (530818.180305511 5007999.27481104)
POINT (530819.227129673 5007999.28481328)
POINT (530819.347742326 5007999.28481328)
POINT (530819.347742326 5007999.62311333)
POINT (530819.227129673 5007999.62311333)
POINT (530819.227129673 5007999.28481328)
POINT (530812.335668566 5008007.70126314)
POINT (530812.456281219 5008007.70126314)
POINT (530812.456281219 5008008.03956318)
POINT (530812.335668566 5008008.03956318)
POINT (530812.335668566 5008007.70126314)
POINT (530813.382492729 5008007.71126538)
POINT (530813.503105382 5008007.71126538)
POINT (530813.503105382 5008008.04956543)
POINT (530813.382492729 5008008.04956543)
POINT (530813.382492729 5008007.71126538)
POINT (530816.428608765 5008007.74037055)
POINT (530816.549221418 5008007.74037055)
POINT (530816.549221418 5008008.07867059)
POINT (530816.428608765 5008008.07867059)
POINT (530816.428608765 5008007.74037055)
POINT (530815.277554987 5008016.21166911)
POINT (530815.398167639 5008016.21166911)
POINT (530815.398167639 5008016.54996916)
POINT (530815.277554987 5008016.54996916)
POINT (530815.277554987 5008016.21166911)
POINT (530816.332955025 5008016.2217533)
POINT (530816.453567677 5008016.2217533)
POINT (530816.453567677 5008016.56005334)
POINT (530816.332955025 5008016.56005334)
POINT (530816.332955025 5008016.2217533)
POINT (530819.379071061 5008016.25085847)
POINT (530819.499683714 5008016.25085847)
POINT (530819.499683714 5008016.58915851)
POINT (530819.379071061 5008016.58915851)
POINT (530819.379071061 5008016.25085847)
POINT (530812.997586688 5008024.67218107)
POINT (530813.118199341 5008024.67218107)
POINT (530813.118199341 5008025.01048112)
POINT (530812.997586688 5008025.01048112)
POINT (530812.997586688 5008024.67218107)
POINT (530816.043689632 5008024.70128612)
POINT (530816.164302284 5008024.70128612)
POINT (530816.164302284 5008025.03958616)
POINT (530816.043689632 5008025.03958616)
POINT (530816.043689632 5008024.70128612)
POINT (530819.089805668 5008024.73039128)
POINT (530819.210418321 5008024.73039128)
POINT (530819.210418321 5008025.06869133)
POINT (530819.089805668 5008025.06869133)
POINT (530819.089805668 5008024.73039128)
POINT (530812.726594292 5008033.15188848)
POINT (530812.847206944 5008033.15188848)
POINT (530812.847206944 5008033.49018853)
POINT (530812.726594292 5008033.49018853)
POINT (530812.726594292 5008033.15188848)
POINT (530813.78199433 5008033.16197267)
POINT (530813.902606983 5008033.16197267)
POINT (530813.902606983 5008033.50027271)
POINT (530813.78199433 5008033.50027271)
POINT (530813.78199433 5008033.16197267)
POINT (530816.828110366 5008033.19107784)
POINT (530816.948723019 5008033.19107784)
POINT (530816.948723019 5008033.52937788)
POINT (530816.828110366 5008033.52937788)
POINT (530816.828110366 5008033.19107784)
POINT (530813.514740062 5008041.64172439)
POINT (530813.635352715 5008041.64172439)
POINT (530813.635352715 5008041.98002444)
POINT (530813.514740062 5008041.98002444)
POINT (530813.514740062 5008041.64172439)
POINT (530816.560856098 5008041.67082956)
POINT (530816.681468751 5008041.67082956)
POINT (530816.681468751 5008042.00912961)
POINT (530816.560856098 5008042.00912961)
POINT (530816.560856098 5008041.67082956)
POINT (530817.616264671 5008041.68093102)
POINT (530817.736877324 5008041.68093102)
POINT (530817.736877324 5008042.01923106)
POINT (530817.616264671 5008042.01923106)
POINT (530817.616264671 5008041.68093102)
POINT (530814.3029142 5008050.13156057)
POINT (530814.423526853 5008050.13156057)
POINT (530814.423526853 5008050.46986062)
POINT (530814.3029142 5008050.46986062)
POINT (530814.3029142 5008050.13156057)
POINT (530817.349017144 5008050.16066562)
POINT (530817.469629796 5008050.16066562)
POINT (530817.469629796 5008050.49896566)
POINT (530817.349017144 5008050.49896566)
POINT (530817.349017144 5008050.16066562)
POINT (530813.778237659 5008058.60883548)
POINT (530813.898850312 5008058.60883548)
POINT (530813.898850312 5008058.94713552)
POINT (530813.778237659 5008058.94713552)
POINT (530813.778237659 5008058.60883548)
POINT (530814.833646232 5008058.61893693)
POINT (530814.954258885 5008058.61893693)
POINT (530814.954258885 5008058.95723698)
POINT (530814.833646232 5008058.95723698)
POINT (530814.833646232 5008058.61893693)
POINT (530817.879762268 5008058.6480421)
POINT (530818.000374921 5008058.6480421)
POINT (530818.000374921 5008058.98634215)
POINT (530817.879762268 5008058.98634215)
POINT (530817.879762268 5008058.6480421)
POINT (530814.660770431 5008067.09957324)
POINT (530814.781383083 5008067.09957324)
POINT (530814.781383083 5008067.43787329)
POINT (530814.660770431 5008067.43787329)
POINT (530814.660770431 5008067.09957324)
POINT (530817.706886467 5008067.12867841)
POINT (530817.82749912 5008067.12867841)
POINT (530817.82749912 5008067.46697846)
POINT (530817.706886467 5008067.46697846)
POINT (530817.706886467 5008067.12867841)
POINT (530818.76229504 5008067.13877987)
POINT (530818.882907693 5008067.13877987)
POINT (530818.882907693 5008067.47707991)
POINT (530818.76229504 5008067.47707991)
POINT (530818.76229504 5008067.13877987)
POINT (530812.325591391 5008075.55954048)
POINT (530812.446204043 5008075.55954048)
POINT (530812.446204043 5008075.89784053)
POINT (530812.325591391 5008075.89784053)
POINT (530812.325591391 5008075.55954048)
POINT (530815.371707427 5008075.58864565)
POINT (530815.49232008 5008075.58864565)
POINT (530815.49232008 5008075.92694569)
POINT (530815.371707427 5008075.92694569)
POINT (530815.371707427 5008075.58864565)
POINT (530818.41781037 5008075.61775069)
POINT (530818.538423023 5008075.61775069)
POINT (530818.538423023 5008075.95605074)
POINT (530818.41781037 5008075.95605074)
POINT (530818.41781037 5008075.61775069)
POINT (530815.164523566 5008084.06897134)
POINT (530815.285136219 5008084.06897134)
POINT (530815.285136219 5008084.40727138)
POINT (530815.164523566 5008084.40727138)
POINT (530815.164523566 5008084.06897134)
POINT (530816.219923604 5008084.07905552)
POINT (530816.340536257 5008084.07905552)
POINT (530816.340536257 5008084.41735557)
POINT (530816.219923604 5008084.41735557)
POINT (530816.219923604 5008084.07905552)
POINT (530819.26603964 5008084.10816069)
POINT (530819.386652293 5008084.10816069)
POINT (530819.386652293 5008084.44646074)
POINT (530819.26603964 5008084.44646074)
POINT (530819.26603964 5008084.10816069)
POINT (530856.052508296 5008016.6012675)
POINT (530856.173120949 5008016.6012675)
POINT (530856.173120949 5008016.93956754)
POINT (530856.052508296 5008016.93956754)
POINT (530856.052508296 5008016.6012675)
POINT (530857.099332459 5008016.61126974)
POINT (530857.219945111 5008016.61126974)
POINT (530857.219945111 5008016.94956979)
POINT (530857.099332459 5008016.94956979)
POINT (530857.099332459 5008016.61126974)
POINT (530860.145448495 5008016.64037491)
POINT (530860.266061148 5008016.64037491)
POINT (530860.266061148 5008016.97867495)
POINT (530860.145448495 5008016.97867495)
POINT (530860.145448495 5008016.64037491)
POINT (530822.27324571 5007999.31391845)
POINT (530822.393858363 5007999.31391845)
POINT (530822.393858363 5007999.65221849)
POINT (530822.27324571 5007999.65221849)
POINT (530822.27324571 5007999.31391845)
POINT (530825.319348653 5007999.34302349)
POINT (530825.439961306 5007999.34302349)
POINT (530825.439961306 5007999.68132354)
POINT (530825.319348653 5007999.68132354)
POINT (530825.319348653 5007999.34302349)
POINT (530819.474711708 5008007.76947559)
POINT (530819.595324361 5008007.76947559)
POINT (530819.595324361 5008008.10777564)
POINT (530819.474711708 5008008.10777564)
POINT (530819.474711708 5008007.76947559)
POINT (530822.520827745 5008007.79858076)
POINT (530822.641440398 5008007.79858076)
POINT (530822.641440398 5008008.13688081)
POINT (530822.520827745 5008008.13688081)
POINT (530822.520827745 5008007.79858076)
POINT (530823.576227783 5008007.80866495)
POINT (530823.696840436 5008007.80866495)
POINT (530823.696840436 5008008.14696499)
POINT (530823.576227783 5008008.14696499)
POINT (530823.576227783 5008007.80866495)
POINT (530826.622343819 5008007.83777012)
POINT (530826.742956472 5008007.83777012)
POINT (530826.742956472 5008008.17607016)
POINT (530826.622343819 5008008.17607016)
POINT (530826.622343819 5008007.83777012)
POINT (530822.425174004 5008016.27996351)
POINT (530822.545786657 5008016.27996351)
POINT (530822.545786657 5008016.61826355)
POINT (530822.425174004 5008016.61826355)
POINT (530822.425174004 5008016.27996351)
POINT (530825.471290041 5008016.30906868)
POINT (530825.591902694 5008016.30906868)
POINT (530825.591902694 5008016.64736872)
POINT (530825.471290041 5008016.64736872)
POINT (530825.471290041 5008016.30906868)
POINT (530826.526698614 5008016.31917013)
POINT (530826.647311266 5008016.31917013)
POINT (530826.647311266 5008016.65747018)
POINT (530826.526698614 5008016.65747018)
POINT (530826.526698614 5008016.31917013)
POINT (530820.145214241 5008024.74049274)
POINT (530820.265826894 5008024.74049274)
POINT (530820.265826894 5008025.07879278)
POINT (530820.145214241 5008025.07879278)
POINT (530820.145214241 5008024.74049274)
POINT (530823.191330277 5008024.76959791)
POINT (530823.31194293 5008024.76959791)
POINT (530823.31194293 5008025.10789795)
POINT (530823.191330277 5008025.10789795)
POINT (530823.191330277 5008024.76959791)
POINT (530826.23743322 5008024.79870295)
POINT (530826.358045873 5008024.79870295)
POINT (530826.358045873 5008025.13700299)
POINT (530826.23743322 5008025.13700299)
POINT (530826.23743322 5008024.79870295)
POINT (530819.874213309 5008033.22018288)
POINT (530819.994825962 5008033.22018288)
POINT (530819.994825962 5008033.55848292)
POINT (530819.874213309 5008033.55848292)
POINT (530819.874213309 5008033.22018288)
POINT (530822.920329346 5008033.24928805)
POINT (530823.040941999 5008033.24928805)
POINT (530823.040941999 5008033.58758809)
POINT (530822.920329346 5008033.58758809)
POINT (530822.920329346 5008033.24928805)
POINT (530823.975737919 5008033.2593895)
POINT (530824.096350571 5008033.2593895)
POINT (530824.096350571 5008033.59768955)
POINT (530823.975737919 5008033.59768955)
POINT (530823.975737919 5008033.2593895)
POINT (530827.021853955 5008033.28849467)
POINT (530827.142466608 5008033.28849467)
POINT (530827.142466608 5008033.62679472)
POINT (530827.021853955 5008033.62679472)
POINT (530827.021853955 5008033.28849467)
POINT (530820.662380708 5008041.71003619)
POINT (530820.78299336 5008041.71003619)
POINT (530820.78299336 5008042.04833623)
POINT (530820.662380708 5008042.04833623)
POINT (530820.662380708 5008041.71003619)
POINT (530823.708483651 5008041.73914123)
POINT (530823.829096304 5008041.73914123)
POINT (530823.829096304 5008042.07744127)
POINT (530823.708483651 5008042.07744127)
POINT (530823.708483651 5008041.73914123)
POINT (530826.754599687 5008041.7682464)
POINT (530826.87521234 5008041.7682464)
POINT (530826.87521234 5008042.10654644)
POINT (530826.754599687 5008042.10654644)
POINT (530826.754599687 5008041.7682464)
POINT (530820.39513318 5008050.18977079)
POINT (530820.515745833 5008050.18977079)
POINT (530820.515745833 5008050.52807083)
POINT (530820.39513318 5008050.52807083)
POINT (530820.39513318 5008050.18977079)
POINT (530820.925865212 5008058.67714715)
POINT (530821.046477864 5008058.67714715)
POINT (530821.046477864 5008059.01544719)
POINT (530820.925865212 5008059.01544719)
POINT (530820.925865212 5008058.67714715)
POINT (530823.971981248 5008058.70625232)
POINT (530824.092593901 5008058.70625232)
POINT (530824.092593901 5008059.04455236)
POINT (530823.971981248 5008059.04455236)
POINT (530823.971981248 5008058.70625232)
POINT (530821.808411076 5008067.16788503)
POINT (530821.929023729 5008067.16788503)
POINT (530821.929023729 5008067.50618508)
POINT (530821.808411076 5008067.50618508)
POINT (530821.808411076 5008067.16788503)
POINT (530824.85451402 5008067.19699008)
POINT (530824.975126672 5008067.19699008)
POINT (530824.975126672 5008067.53529012)
POINT (530824.85451402 5008067.53529012)
POINT (530824.85451402 5008067.19699008)
POINT (530827.900630056 5008067.22609525)
POINT (530828.021242709 5008067.22609525)
POINT (530828.021242709 5008067.56439529)
POINT (530827.900630056 5008067.56439529)
POINT (530827.900630056 5008067.22609525)
POINT (530821.463926407 5008075.64685586)
POINT (530821.58453906 5008075.64685586)
POINT (530821.58453906 5008075.98515591)
POINT (530821.463926407 5008075.98515591)
POINT (530821.463926407 5008075.64685586)
POINT (530822.51933498 5008075.65695732)
POINT (530822.639947632 5008075.65695732)
POINT (530822.639947632 5008075.99525736)
POINT (530822.51933498 5008075.99525736)
POINT (530822.51933498 5008075.65695732)
POINT (530825.565451016 5008075.68606249)
POINT (530825.686063669 5008075.68606249)
POINT (530825.686063669 5008076.02436253)
POINT (530825.565451016 5008076.02436253)
POINT (530825.565451016 5008075.68606249)
POINT (530822.312142584 5008084.13726574)
POINT (530822.432755237 5008084.13726574)
POINT (530822.432755237 5008084.47556578)
POINT (530822.312142584 5008084.47556578)
POINT (530822.312142584 5008084.13726574)
POINT (530825.35825862 5008084.16637091)
POINT (530825.478871273 5008084.16637091)
POINT (530825.478871273 5008084.50467095)
POINT (530825.35825862 5008084.50467095)
POINT (530825.35825862 5008084.16637091)
POINT (530863.191551438 5008016.66947995)
POINT (530863.312164091 5008016.66947995)
POINT (530863.312164091 5008017.00778)
POINT (530863.191551438 5008017.00778)
POINT (530863.191551438 5008016.66947995)
POINT (530866.237667475 5008016.69858512)
POINT (530866.358280127 5008016.69858512)
POINT (530866.358280127 5008017.03688517)
POINT (530866.237667475 5008017.03688517)
POINT (530866.237667475 5008016.69858512)
POINT (530867.293067513 5008016.70866931)
POINT (530867.413680165 5008016.70866931)
POINT (530867.413680165 5008017.04696935)
POINT (530867.293067513 5008017.04696935)
POINT (530867.293067513 5008016.70866931)
POINT (530870.339183549 5008016.73777448)
POINT (530870.459796202 5008016.73777448)
POINT (530870.459796202 5008017.07607452)
POINT (530870.339183549 5008017.07607452)
POINT (530870.339183549 5008016.73777448)
POINT (530873.385286492 5008016.76687952)
POINT (530873.505899145 5008016.76687952)
POINT (530873.505899145 5008017.10517956)
POINT (530873.385286492 5008017.10517956)
POINT (530873.385286492 5008016.76687952)
POINT (530876.431402529 5008016.79598469)
POINT (530876.552015182 5008016.79598469)
POINT (530876.552015182 5008017.13428473)
POINT (530876.431402529 5008017.13428473)
POINT (530876.431402529 5008016.79598469)
POINT (530828.36546469 5007999.37212866)
POINT (530828.486077342 5007999.37212866)
POINT (530828.486077342 5007999.71042871)
POINT (530828.36546469 5007999.71042871)
POINT (530828.36546469 5007999.37212866)
POINT (530829.420864728 5007999.38221285)
POINT (530829.54147738 5007999.38221285)
POINT (530829.54147738 5007999.72051289)
POINT (530829.420864728 5007999.72051289)
POINT (530829.420864728 5007999.38221285)
POINT (530832.466980764 5007999.41131802)
POINT (530832.587593417 5007999.41131802)
POINT (530832.587593417 5007999.74961806)
POINT (530832.466980764 5007999.74961806)
POINT (530832.466980764 5007999.41131802)
POINT (530835.513083707 5007999.44042306)
POINT (530835.63369636 5007999.44042306)
POINT (530835.63369636 5007999.7787231)
POINT (530835.513083707 5007999.7787231)
POINT (530835.513083707 5007999.44042306)
POINT (530838.559199744 5007999.46952823)
POINT (530838.679812396 5007999.46952823)
POINT (530838.679812396 5007999.80782827)
POINT (530838.559199744 5007999.80782827)
POINT (530838.559199744 5007999.46952823)
POINT (530839.614608317 5007999.47962968)
POINT (530839.735220969 5007999.47962968)
POINT (530839.735220969 5007999.81792973)
POINT (530839.614608317 5007999.81792973)
POINT (530839.614608317 5007999.47962968)
POINT (530842.660724353 5007999.50873485)
POINT (530842.781337006 5007999.50873485)
POINT (530842.781337006 5007999.84703489)
POINT (530842.660724353 5007999.84703489)
POINT (530842.660724353 5007999.50873485)
POINT (530845.706827296 5007999.5378399)
POINT (530845.827439949 5007999.5378399)
POINT (530845.827439949 5007999.87613994)
POINT (530845.706827296 5007999.87613994)
POINT (530845.706827296 5007999.5378399)
POINT (530848.752943333 5007999.56694506)
POINT (530848.873555985 5007999.56694506)
POINT (530848.873555985 5007999.90524511)
POINT (530848.752943333 5007999.90524511)
POINT (530848.752943333 5007999.56694506)
POINT (530829.668446763 5008007.86687516)
POINT (530829.789059415 5008007.86687516)
POINT (530829.789059415 5008008.2051752)
POINT (530829.668446763 5008008.2051752)
POINT (530829.668446763 5008007.86687516)
POINT (530832.714562799 5008007.89598033)
POINT (530832.835175452 5008007.89598033)
POINT (530832.835175452 5008008.23428037)
POINT (530832.714562799 5008008.23428037)
POINT (530832.714562799 5008007.89598033)
POINT (530833.769971372 5008007.90608178)
POINT (530833.890584025 5008007.90608178)
POINT (530833.890584025 5008008.24438183)
POINT (530833.769971372 5008008.24438183)
POINT (530833.769971372 5008007.90608178)
POINT (530836.816087408 5008007.93518695)
POINT (530836.936700061 5008007.93518695)
POINT (530836.936700061 5008008.27348699)
POINT (530836.816087408 5008008.27348699)
POINT (530836.816087408 5008007.93518695)
POINT (530839.862190352 5008007.96429199)
POINT (530839.982803004 5008007.96429199)
POINT (530839.982803004 5008008.30259204)
POINT (530839.862190352 5008008.30259204)
POINT (530839.862190352 5008007.96429199)
POINT (530842.908306388 5008007.99339716)
POINT (530843.028919041 5008007.99339716)
POINT (530843.028919041 5008008.33169721)
POINT (530842.908306388 5008008.33169721)
POINT (530842.908306388 5008007.99339716)
POINT (530829.57281465 5008016.3482753)
POINT (530829.693427303 5008016.3482753)
POINT (530829.693427303 5008016.68657534)
POINT (530829.57281465 5008016.68657534)
POINT (530829.57281465 5008016.3482753)
POINT (530832.618917593 5008016.37738034)
POINT (530832.739530246 5008016.37738034)
POINT (530832.739530246 5008016.71568039)
POINT (530832.618917593 5008016.71568039)
POINT (530832.618917593 5008016.37738034)
POINT (530835.66503363 5008016.40648551)
POINT (530835.785646282 5008016.40648551)
POINT (530835.785646282 5008016.74478556)
POINT (530835.66503363 5008016.74478556)
POINT (530835.66503363 5008016.40648551)
POINT (530829.283549257 5008024.82780812)
POINT (530829.40416191 5008024.82780812)
POINT (530829.40416191 5008025.16610816)
POINT (530829.283549257 5008025.16610816)
POINT (530829.283549257 5008024.82780812)
POINT (530830.067956898 5008033.31759972)
POINT (530830.188569551 5008033.31759972)
POINT (530830.188569551 5008033.65589976)
POINT (530830.067956898 5008033.65589976)
POINT (530830.067956898 5008033.31759972)
POINT (530833.114072935 5008033.34670488)
POINT (530833.234685588 5008033.34670488)
POINT (530833.234685588 5008033.68500493)
POINT (530833.114072935 5008033.68500493)
POINT (530833.114072935 5008033.34670488)
POINT (530828.611553959 5008075.71516753)
POINT (530828.732166612 5008075.71516753)
POINT (530828.732166612 5008076.05346757)
POINT (530828.611553959 5008076.05346757)
POINT (530828.611553959 5008075.71516753)
POINT (530831.657669996 5008075.7442727)
POINT (530831.778282649 5008075.7442727)
POINT (530831.778282649 5008076.08257274)
POINT (530831.657669996 5008076.08257274)
POINT (530831.657669996 5008075.7442727)
