POLYGON ((530800.637070358 5008123.08877993,530801.508489936 5008124.19541861,530890.403780647 5008010.10290334,530806.669835958 5007967.85447096,530795.463067094 5007963.98781243,530789.930685702 5007963.74908326,530785.726128682 5007966.75881985,530761.633450379 5008008.23887631,530755.81029749 5008020.0871847,530751.791550255 5008033.25380217,530752.099111692 5008043.26821475,530753.860594438 5008052.19821551,530755.797278277 5008057.00702478,530762.804956782 5008068.72446779,530783.962307924 5008100.33816353,530800.637070358 5008123.08877993,530800.637070358 5008123.08877993))
